HELLAS-SAT 3            
1 42814U 17040A   26157.14628189  .00000165  00000+0  00000+0 0  9991
2 42814   0.0518  50.2052 0004833 359.6537 296.3676  1.00272764 32693
GSAT-17                 
1 42815U 17040B   26157.15183847 -.00000245  00000+0  00000+0 0  9990
2 42815   0.0983  88.6210 0001649 215.1285  98.9954  1.00270727 32679
INTELSAT 35E (IS-35E)   
1 42818U 17041A   26157.05545579 -.00000225  00000+0  00000+0 0  9995
2 42818   0.0118  41.1767 0001922  32.9305 165.8532  1.00273535 32705
COSMOS 2520             
1 42907U 17046A   26156.50086601  .00000150  00000+0  00000+0 0  9990
2 42907   0.0454  87.4825 0001425  56.2363 335.5518  1.00266193 32281
TDRS 13                 
1 42915U 17047A   26157.13129836 -.00000088  00000+0  00000+0 0  9999
2 42915   3.4487   2.4466 0014671 104.5727 183.3624  1.00272372 32237
QZS-3 (MICHIBIKI-3)     
1 42917U 17048A   26157.01616735 -.00000335  00000+0  00000+0 0  9993
2 42917   0.0587 190.2719 0002824 254.1031 302.9237  1.00271283 32146
AMAZONAS 5              
1 42934U 17053A   26156.55115306 -.00000270  00000+0  00000+0 0  9992
2 42934   0.0337 320.1790 0002816  69.4832   1.7513  1.00272708 31927
ASIASAT 9               
1 42942U 17057A   26157.30039569 -.00000347  00000+0  00000+0 0  9990
2 42942   0.0055 350.5389 0002426  77.9726  56.4477  1.00270147 31759
INTELSAT 37E (IS-37E)   
1 42950U 17059A   26157.12999836 -.00000128  00000+0  00000+0 0  9990
2 42950   0.0129  30.9612 0002581  60.5970 191.8090  1.00271774 31953
BSAT-4A                 
1 42951U 17059B   26156.79883024 -.00000337  00000+0  00000+0 0  9996
2 42951   0.0345 355.2699 0004462  71.8966 224.4728  1.00270135 31683
QZS-4 (MICHIBIKI-4)     
1 42965U 17062A   26155.37249061 -.00000321  00000+0  00000+0 0  9998
2 42965  40.1160 343.6465 0744830 271.5298 269.7386  1.00255482 31676
SES-11 (ECHOSTAR 105)   
1 42967U 17063A   26157.11276584 -.00000076  00000+0  00000+0 0  9992
2 42967   0.0165 331.6810 0002829 114.1415 104.3642  1.00271277 31610
KOREASAT 5A             
1 42984U 17067A   26156.73032377 -.00000345  00000+0  00000+0 0  9991
2 42984   0.0187 299.7549 0001001 135.6692 194.7971  1.00269653 31413
ALCOMSAT 1              
1 43039U 17078A   26157.05736247 -.00000173  00000+0  00000+0 0  9997
2 43039   0.0255  57.3302 0002546  13.3907 179.6022  1.00273279 31184
SBIRS GEO-3 (USA 282)   
1 43162U 18009A   26156.74556817  .00000140  00000+0  00000+0 0  9990
2 43162   2.1760  11.5399 0002291  60.2755 291.3705  1.00272685 30721
AL YAH 3                
1 43174U 18012A   26157.12956502 -.00000142  00000+0  00000+0 0  9998
2 43174   1.5226  83.2425 0004259 352.5210 205.3414  1.00272134 30731
SES-14                  
1 43175U 18012B   26156.83897654 -.00000266  00000+0  00000+0 0  9995
2 43175   0.0202  26.4441 0001209  54.2686  68.0882  1.00271609  6914
GOES 17                 
1 43226U 18022A   26157.18656016 -.00000169  00000+0  00000+0 0  9999
2 43226   0.9091  85.9162 0000692  11.1423 135.2208  1.00271155 30318
HISPASAT 30W-6          
1 43228U 18023A   26156.69987859 -.00000203  00000+0  00000+0 0  9998
2 43228   0.0439  39.0168 0006363  26.2252  50.8495  1.00271555 30292
SUPERBIRD-B3            
1 43271U 18033A   26157.09429233 -.00000079  00000+0  00000+0 0  9990
2 43271   0.0262 286.8195 0001399 165.7641 357.8946  1.00271402 29954
HYLAS 4                 
1 43272U 18033B   26156.77044763 -.00000221  00000+0  00000+0 0  9995
2 43272   0.0242  65.9969 0001421  14.6783  57.4307  1.00270613 29950
IRNSS-1I                
1 43286U 18035A   26156.85912417  .00000090  00000+0  00000+0 0  9994
2 43286  28.7274  74.3793 0017208 232.0250 312.2399  1.00269424 29963
USA 283                 
1 43339U 18036A   26155.44904296  .00000000  00000+0  00000+0 0  9995
2 43339   0.0148 344.8211 0000547 104.8728  98.9470  1.00268935 25161
COSMOS 2526             
1 43432U 18037A   26157.23020071 -.00000331  00000+0  00000+0 0  9997
2 43432   0.0119  12.3339 0000873 250.6118 202.6342  1.00273242 29855
APSTAR-6C               
1 43450U 18041A   26157.19975454 -.00000304  00000+0  00000+0 0  9991
2 43450   0.0297 319.7447 0001336  40.4047 100.3743  1.00274715 29706
BANGABANDHUSAT-1        
1 43463U 18044A   26157.01452067 -.00000350  00000+0  00000+0 0  9990
2 43463   0.0338  89.2673 0002063 355.6168 293.8794  1.00273693 29594
SES-12                  
1 43488U 18049A   26157.08111894 -.00000256  00000+0  00000+0 0  9994
2 43488   0.0277  42.5562 0000759 253.8071  82.3517  1.00269563 29308
FENGYUN 2H              
1 43491U 18050A   26157.00672062 -.00000118  00000+0  00000+0 0  9998
2 43491   3.0023  79.2032 0001439 126.5708 130.5331  1.00271800 29321
BEIDOU-2 IGSO-7         
1 43539U 18057A   26156.94309197  .00000006  00000+0  00000+0 0  9991
2 43539  55.1930 163.1557 0104672 237.9260 303.5944  1.00254989 29014
TELSTAR 19V             
1 43562U 18059A   26157.17544833 -.00000267  00000+0  00000+0 0  9993
2 43562   0.0119 100.9827 0002771   9.0604 144.7048  1.00269645 29031
TELKOM 4 (MERAH PUTIH)  
1 43587U 18064A   26156.99178464 -.00000331  00000+0  00000+0 0  9990
2 43587   0.0177 299.0275 0001523 157.9943 262.4406  1.00273191 28768
