OBJECT_NAME,OBJECT_ID,EPOCH,MEAN_MOTION,ECCENTRICITY,INCLINATION,RA_OF_ASC_NODE,ARG_OF_PERICENTER,MEAN_ANOMALY,EPHEMERIS_TYPE,CLASSIFICATION_TYPE,NORAD_CAT_ID,ELEMENT_SET_NO,REV_AT_EPOCH,BSTAR,MEAN_MOTION_DOT,MEAN_MOTION_DDOT
HELLAS-SAT 3,2017-040A,2026-06-06T03:30:38.755296,1.00272764,.00048336,0.0518,50.2052,359.6537,296.3676,0,U,42814,999,3269,0,.165E-5,0
GSAT-17,2017-040B,2026-06-06T03:38:38.843808,1.00270727,.00016499,0.0983,88.6210,215.1285,98.9954,0,U,42815,999,3267,0,-.245E-5,0
INTELSAT 35E (IS-35E),2017-041A,2026-06-06T01:19:51.380256,1.00273535,.00019229,0.0118,41.1767,32.9305,165.8532,0,U,42818,999,3270,0,-.225E-5,0
COSMOS 2520,2017-046A,2026-06-05T12:01:14.823264,1.00266193,.00014254,0.0454,87.4825,56.2363,335.5518,0,U,42907,999,3228,0,.15E-5,0
TDRS 13,2017-047A,2026-06-06T03:09:04.178304,1.00272372,.0014671,3.4487,2.4466,104.5727,183.3624,0,U,42915,999,3223,0,-.88E-6,0
QZS-3 (MICHIBIKI-3),2017-048A,2026-06-06T00:23:16.859040,1.00271283,.00028243,0.0587,190.2719,254.1031,302.9237,0,U,42917,999,3214,0,-.335E-5,0
AMAZONAS 5,2017-053A,2026-06-05T13:13:39.624384,1.00272708,.00028167,0.0337,320.1790,69.4832,1.7513,0,U,42934,999,3192,0,-.27E-5,0
ASIASAT 9,2017-057A,2026-06-06T07:12:34.187616,1.00270147,.00024263,0.0055,350.5389,77.9726,56.4477,0,U,42942,999,3175,0,-.347E-5,0
INTELSAT 37E (IS-37E),2017-059A,2026-06-06T03:07:11.858304,1.00271774,.00025815,0.0129,30.9612,60.5970,191.8090,0,U,42950,999,3195,0,-.128E-5,0
BSAT-4A,2017-059B,2026-06-05T19:10:18.932736,1.00270135,.00044626,0.0345,355.2699,71.8966,224.4728,0,U,42951,999,3168,0,-.337E-5,0
QZS-4 (MICHIBIKI-4),2017-062A,2026-06-04T08:56:23.188704,1.00255482,.074483,40.1160,343.6465,271.5298,269.7386,0,U,42965,999,3167,0,-.321E-5,0
SES-11 (ECHOSTAR 105),2017-063A,2026-06-06T02:42:22.968576,1.00271277,.00028298,0.0165,331.6810,114.1415,104.3642,0,U,42967,999,3161,0,-.76E-6,0
KOREASAT 5A,2017-067A,2026-06-05T17:31:39.973728,1.00269653,.00010015,0.0187,299.7549,135.6692,194.7971,0,U,42984,999,3141,0,-.345E-5,0
ALCOMSAT 1,2017-078A,2026-06-06T01:22:36.117408,1.00273279,.00025466,0.0255,57.3302,13.3907,179.6022,0,U,43039,999,3118,0,-.173E-5,0
SBIRS GEO-3 (USA 282),2018-009A,2026-06-05T17:53:37.089888,1.00272685,.00022917,2.1760,11.5399,60.2755,291.3705,0,U,43162,999,3072,0,.14E-5,0
AL YAH 3,2018-012A,2026-06-06T03:06:34.417728,1.00272134,.00042591,1.5226,83.2425,352.5210,205.3414,0,U,43174,999,3073,0,-.142E-5,0
SES-14,2018-012B,2026-06-05T20:08:07.573056,1.00271609,.0001209,0.0202,26.4441,54.2686,68.0882,0,U,43175,999,691,0,-.266E-5,0
GOES 17,2018-022A,2026-06-06T04:28:38.797824,1.00271155,.00006926,0.9091,85.9162,11.1423,135.2208,0,U,43226,999,3031,0,-.169E-5,0
HISPASAT 30W-6,2018-023A,2026-06-05T16:47:49.510176,1.00271555,.00063631,0.0439,39.0168,26.2252,50.8495,0,U,43228,999,3029,0,-.203E-5,0
SUPERBIRD-B3,2018-033A,2026-06-06T02:15:46.857312,1.00271402,.00013996,0.0262,286.8195,165.7641,357.8946,0,U,43271,999,2995,0,-.79E-6,0
HYLAS 4,2018-033B,2026-06-05T18:29:26.675232,1.00270613,.00014217,0.0242,65.9969,14.6783,57.4307,0,U,43272,999,2995,0,-.221E-5,0
IRNSS-1I,2018-035A,2026-06-05T20:37:08.328288,1.00269424,.0017208,28.7274,74.3793,232.0250,312.2399,0,U,43286,999,2996,0,.9E-6,0
USA 283,2018-036A,2026-06-04T10:46:37.311744,1.00268935,.0000547,0.0148,344.8211,104.8728,98.9470,0,U,43339,999,2516,0,0,0
COSMOS 2526,2018-037A,2026-06-06T05:31:29.341344,1.00273242,.00008738,0.0119,12.3339,250.6118,202.6342,0,U,43432,999,2985,0,-.331E-5,0
APSTAR-6C,2018-041A,2026-06-06T04:47:38.792256,1.00274715,.0001336,0.0297,319.7447,40.4047,100.3743,0,U,43450,999,2970,0,-.304E-5,0
BANGABANDHUSAT-1,2018-044A,2026-06-06T00:20:54.585888,1.00273693,.00020636,0.0338,89.2673,355.6168,293.8794,0,U,43463,999,2959,0,-.35E-5,0
SES-12,2018-049A,2026-06-06T01:56:48.676416,1.00269563,.0000759,0.0277,42.5562,253.8071,82.3517,0,U,43488,999,2930,0,-.256E-5,0
FENGYUN 2H,2018-050A,2026-06-06T00:09:40.661568,1.00271800,.00014396,3.0023,79.2032,126.5708,130.5331,0,U,43491,999,2932,0,-.118E-5,0
BEIDOU-2 IGSO-7,2018-057A,2026-06-05T22:38:03.146208,1.00254989,.0104672,55.1930,163.1557,237.9260,303.5944,0,U,43539,999,2901,0,.6E-7,0
TELSTAR 19V,2018-059A,2026-06-06T04:12:38.735712,1.00269645,.00027711,0.0119,100.9827,9.0604,144.7048,0,U,43562,999,2903,0,-.267E-5,0
TELKOM 4 (MERAH PUTIH),2018-064A,2026-06-05T23:48:10.192896,1.00273191,.00015232,0.0177,299.0275,157.9943,262.4406,0,U,43587,999,2876,0,-.331E-5,0
